{"type": "FeatureCollection", "features": [ {"type": "Feature", "properties": {"norad_id": 36539, "name": "COSMOS 2251 DEB", "group": "cosmos-2251-debris", "lat": 10.894985181933007, "lon": 67.49225320322752, "alt_km": 715.1539739503723, "timestamp": "2025-12-07T22:37:43.479476+00:00", "meta": {"OBJECT_NAME": "COSMOS 2251 DEB", "OBJECT_ID": "1993-036BCZ", "EPOCH": "2025-12-06T23:32:29.739264", "MEAN_MOTION": 14.5924054, "ECCENTRICITY": 0.00275307, "INCLINATION": 74.0247, "RA_OF_ASC_NODE": 66.1653, "ARG_OF_PERICENTER": 212.1489, "MEAN_ANOMALY": 147.7998, "EPHEMERIS_TYPE": 0, "CLASSIFICATION_TYPE": "U", "NORAD_CAT_ID": 36539, "ELEMENT_SET_NO": 999, "REV_AT_EPOCH": 83863, "BSTAR": 0.0012573204, "MEAN_MOTION_DOT": 5.941e-05, "MEAN_MOTION_DDOT": 0}, "tle": {"line1": "1 36539U 93036BCZ 25340.98089976  .00005941  00000+0  12573-2 0  9995", "line2": "2 36539  74.0247  66.1653 0027530 212.1489 147.7998 14.59240540838630"}}, "geometry": {"type": "Point", "coordinates": [67.49225320322752, 10.894985181933007]}}, {"type": "Feature", "properties": {"norad_id": 36540, "name": "COSMOS 2251 DEB", "group": "cosmos-2251-debris", "lat": -11.880060547929645, "lon": -173.8037330958842, "alt_km": 701.9086188625442, "timestamp": "2025-12-07T22:37:43.479487+00:00", "meta": {"OBJECT_NAME": "COSMOS 2251 DEB", "OBJECT_ID": "1993-036BDA", "EPOCH": "2025-12-06T23:38:13.385760", "MEAN_MOTION": 14.58402616, "ECCENTRICITY": 0.00152522, "INCLINATION": 74.0273, "RA_OF_ASC_NODE": 191.4742, "ARG_OF_PERICENTER": 261.9944, "MEAN_ANOMALY": 97.949, "EPHEMERIS_TYPE": 0, "CLASSIFICATION_TYPE": "U", "NORAD_CAT_ID": 36540, "ELEMENT_SET_NO": 999, "REV_AT_EPOCH": 85926, "BSTAR": 0.0016241504, "MEAN_MOTION_DOT": 7.518e-05, "MEAN_MOTION_DDOT": 0}, "tle": {"line1": "1 36540U 93036BDA 25340.98487715  .00007518  00000+0  16242-2 0  9999", "line2": "2 36540  74.0273 191.4742 0015252 261.9944  97.9490 14.58402616859266"}}, "geometry": {"type": "Point", "coordinates": [-173.8037330958842, -11.880060547929645]}}, {"type": "Feature", "properties": {"norad_id": 36550, "name": "COSMOS 2251 DEB", "group": "cosmos-2251-debris", "lat": 7.2577607132130755, "lon": -156.49119390595953, "alt_km": 825.9656687348852, "timestamp": "2025-12-07T22:37:43.479497+00:00", "meta": {"OBJECT_NAME": "COSMOS 2251 DEB", "OBJECT_ID": "1993-036BDL", "EPOCH": "2025-12-05T23:29:18.021984", "MEAN_MOTION": 14.27168955, "ECCENTRICITY": 0.00788112, "INCLINATION": 74.0447, "RA_OF_ASC_NODE": 204.9723, "ARG_OF_PERICENTER": 257.0912, "MEAN_ANOMALY": 102.1425, "EPHEMERIS_TYPE": 0, "CLASSIFICATION_TYPE": "U", "NORAD_CAT_ID": 36550, "ELEMENT_SET_NO": 999, "REV_AT_EPOCH": 84499, "BSTAR": 0.0010210292, "MEAN_MOTION_DOT": 2.55e-05, "MEAN_MOTION_DDOT": 0}, "tle": {"line1": "1 36550U 93036BDL 25339.97868081  .00002550  00000+0  10210-2 0  9996", "line2": "2 36550  74.0447 204.9723 0078811 257.0912 102.1425 14.27168955844992"}}, "geometry": {"type": "Point", "coordinates": [-156.49119390595953, 7.2577607132130755]}}, {"type": "Feature", "properties": {"norad_id": 36551, "name": "COSMOS 2251 DEB", "group": "cosmos-2251-debris", "lat": -23.466088145962033, "lon": -148.20936465987262, "alt_km": 587.331504836885, "timestamp": "2025-12-07T22:37:43.479508+00:00", "meta": {"OBJECT_NAME": "COSMOS 2251 DEB", "OBJECT_ID": "1993-036BDM", "EPOCH": "2025-12-07T02:32:25.712160", "MEAN_MOTION": 15.02297891, "ECCENTRICITY": 0.00507013, "INCLINATION": 73.8888, "RA_OF_ASC_NODE": 26.3042, "ARG_OF_PERICENTER": 336.2783, "MEAN_ANOMALY": 23.6067, "EPHEMERIS_TYPE": 0, "CLASSIFICATION_TYPE": "U", "NORAD_CAT_ID": 36551, "ELEMENT_SET_NO": 999, "REV_AT_EPOCH": 66847, "BSTAR": 0.0018868988, "MEAN_MOTION_DOT": 0.00025681, "MEAN_MOTION_DDOT": 0}, "tle": {"line1": "1 36551U 93036BDM 25341.10585315  .00025681  00000+0  18869-2 0  9999", "line2": "2 36551  73.8888  26.3042 0050701 336.2783  23.6067 15.02297891668475"}}, "geometry": {"type": "Point", "coordinates": [-148.20936465987262, -23.466088145962033]}}, {"type": "Feature", "properties": {"norad_id": 36557, "name": "COSMOS 2251 DEB", "group": "cosmos-2251-debris", "lat": -63.1268509079194, "lon": -9.754610767992284, "alt_km": 631.3491969542902, "timestamp": "2025-12-07T22:37:43.479518+00:00", "meta": {"OBJECT_NAME": "COSMOS 2251 DEB", "OBJECT_ID": "1993-036BDT", "EPOCH": "2025-12-05T17:31:03.797184", "MEAN_MOTION": 14.7773075, "ECCENTRICITY": 0.00207314, "INCLINATION": 73.9789, "RA_OF_ASC_NODE": 140.0591, "ARG_OF_PERICENTER": 291.0681, "MEAN_ANOMALY": 68.8277, "EPHEMERIS_TYPE": 0, "CLASSIFICATION_TYPE": "U", "NORAD_CAT_ID": 36557, "ELEMENT_SET_NO": 999, "REV_AT_EPOCH": 33793, "BSTAR": 0.0052902478, "MEAN_MOTION_DOT": 0.00038255, "MEAN_MOTION_DDOT": 0}, "tle": {"line1": "1 36557U 93036BDT 25339.72990506  .00038255  00000+0  52902-2 0  9999", "line2": "2 36557  73.9789 140.0591 0020731 291.0681  68.8277 14.77730750337935"}}, "geometry": {"type": "Point", "coordinates": [-9.754610767992284, -63.1268509079194]}}, {"type": "Feature", "properties": {"norad_id": 36558, "name": "COSMOS 2251 DEB", "group": "cosmos-2251-debris", "lat": -37.34693122495465, "lon": -3.762189651549479, "alt_km": 706.5700817594907, "timestamp": "2025-12-07T22:37:43.479529+00:00", "meta": {"OBJECT_NAME": "COSMOS 2251 DEB", "OBJECT_ID": "1993-036BDU", "EPOCH": "2025-12-06T06:01:43.478688", "MEAN_MOTION": 14.55287129, "ECCENTRICITY": 0.00130881, "INCLINATION": 74.0413, "RA_OF_ASC_NODE": 166.8264, "ARG_OF_PERICENTER": 255.1947, "MEAN_ANOMALY": 104.7766, "EPHEMERIS_TYPE": 0, "CLASSIFICATION_TYPE": "U", "NORAD_CAT_ID": 36558, "ELEMENT_SET_NO": 999, "REV_AT_EPOCH": 85174, "BSTAR": 0.0015050875, "MEAN_MOTION_DOT": 6.507e-05, "MEAN_MOTION_DDOT": 0}, "tle": {"line1": "1 36558U 93036BDU 25340.25119767  .00006507  00000+0  15051-2 0  9991", "line2": "2 36558  74.0413 166.8264 0013088 255.1947 104.7766 14.55287129851744"}}, "geometry": {"type": "Point", "coordinates": [-3.762189651549479, -37.34693122495465]}}, {"type": "Feature", "properties": {"norad_id": 36559, "name": "COSMOS 2251 DEB", "group": "cosmos-2251-debris", "lat": 8.382089726993886, "lon": 20.4136118014883, "alt_km": 772.7661548279793, "timestamp": "2025-12-07T22:37:43.479539+00:00", "meta": {"OBJECT_NAME": "COSMOS 2251 DEB", "OBJECT_ID": "1993-036BDV", "EPOCH": "2025-12-03T03:17:00.548160", "MEAN_MOTION": 13.95062123, "ECCENTRICITY": 0.02603187, "INCLINATION": 74.1298, "RA_OF_ASC_NODE": 26.2197, "ARG_OF_PERICENTER": 61.9669, "MEAN_ANOMALY": 300.7529, "EPHEMERIS_TYPE": 0, "CLASSIFICATION_TYPE": "U", "NORAD_CAT_ID": 36559, "ELEMENT_SET_NO": 999, "REV_AT_EPOCH": 80960, "BSTAR": 0.0032733881, "MEAN_MOTION_DOT": 5.835e-05, "MEAN_MOTION_DDOT": 0}, "tle": {"line1": "1 36559U 93036BDV 25337.13681190  .00005835  00000+0  32734-2 0  9999", "line2": "2 36559  74.1298  26.2197 0260318  61.9669 300.7529 13.95062123809606"}}, "geometry": {"type": "Point", "coordinates": [20.4136118014883, 8.382089726993886]}}, {"type": "Feature", "properties": {"norad_id": 36614, "name": "COSMOS 2251 DEB", "group": "cosmos-2251-debris", "lat": 27.24346576161602, "lon": -4.732644347797839, "alt_km": 693.4944688252172, "timestamp": "2025-12-07T22:37:43.479549+00:00", "meta": {"OBJECT_NAME": "COSMOS 2251 DEB", "OBJECT_ID": "1993-036BEC", "EPOCH": "2025-12-03T20:55:07.059072", "MEAN_MOTION": 14.60089968, "ECCENTRICITY": 0.0016551, "INCLINATION": 74.0216, "RA_OF_ASC_NODE": 191.525, "ARG_OF_PERICENTER": 261.9036, "MEAN_ANOMALY": 98.0252, "EPHEMERIS_TYPE": 0, "CLASSIFICATION_TYPE": "U", "NORAD_CAT_ID": 36614, "ELEMENT_SET_NO": 999, "REV_AT_EPOCH": 65483, "BSTAR": 0.0023551, "MEAN_MOTION_DOT": 0.00011335, "MEAN_MOTION_DDOT": 0}, "tle": {"line1": "1 36614U 93036BEC 25337.87160948  .00011335  00000+0  23551-2 0  9994", "line2": "2 36614  74.0216 191.5250 0016551 261.9036  98.0252 14.60089968654833"}}, "geometry": {"type": "Point", "coordinates": [-4.732644347797839, 27.24346576161602]}}, {"type": "Feature", "properties": {"norad_id": 36622, "name": "COSMOS 2251 DEB", "group": "cosmos-2251-debris", "lat": -55.29947228202166, "lon": 130.42243771912752, "alt_km": 600.7823353098038, "timestamp": "2025-12-07T22:37:43.479560+00:00", "meta": {"OBJECT_NAME": "COSMOS 2251 DEB", "OBJECT_ID": "1993-036BEL", "EPOCH": "2025-12-05T18:50:31.171200", "MEAN_MOTION": 14.76101592, "ECCENTRICITY": 0.00686912, "INCLINATION": 74.0121, "RA_OF_ASC_NODE": 159.111, "ARG_OF_PERICENTER": 295.8751, "MEAN_ANOMALY": 63.5351, "EPHEMERIS_TYPE": 0, "CLASSIFICATION_TYPE": "U", "NORAD_CAT_ID": 36622, "ELEMENT_SET_NO": 999, "REV_AT_EPOCH": 66647, "BSTAR": 0.0010697959, "MEAN_MOTION_DOT": 7.647e-05, "MEAN_MOTION_DDOT": 0}, "tle": {"line1": "1 36622U 93036BEL 25339.78508300  .00007647  00000+0  10698-2 0  9992", "line2": "2 36622  74.0121 159.1110 0068691 295.8751  63.5351 14.76101592666479"}}, "geometry": {"type": "Point", "coordinates": [130.42243771912752, -55.29947228202166]}}, {"type": "Feature", "properties": {"norad_id": 36632, "name": "COSMOS 2251 DEB", "group": "cosmos-2251-debris", "lat": -45.4464656996467, "lon": -75.65004113073388, "alt_km": 757.7617763387934, "timestamp": "2025-12-07T22:37:43.479570+00:00", "meta": {"OBJECT_NAME": "COSMOS 2251 DEB", "OBJECT_ID": "1993-036BEW", "EPOCH": "2025-12-06T15:14:20.059296", "MEAN_MOTION": 14.43120939, "ECCENTRICITY": 0.00315725, "INCLINATION": 73.999, "RA_OF_ASC_NODE": 303.7287, "ARG_OF_PERICENTER": 53.381, "MEAN_ANOMALY": 307.0243, "EPHEMERIS_TYPE": 0, "CLASSIFICATION_TYPE": "U", "NORAD_CAT_ID": 36632, "ELEMENT_SET_NO": 999, "REV_AT_EPOCH": 65127, "BSTAR": 0.0015554833, "MEAN_MOTION_DOT": 5.23e-05, "MEAN_MOTION_DDOT": 0}, "tle": {"line1": "1 36632U 93036BEW 25340.63495439  .00005230  00000+0  15555-2 0  9990", "line2": "2 36632  73.9990 303.7287 0031572  53.3810 307.0243 14.43120939651273"}}, "geometry": {"type": "Point", "coordinates": [-75.65004113073388, -45.4464656996467]}}]}